[{"OBJECT_NAME":"STARLINK-11485 [DTC]","OBJECT_ID":"2024-231M","EPOCH":"2025-11-01T11:08:51.274176","MEAN_MOTION":15.69714029,"ECCENTRICITY":0.00013097,"INCLINATION":53.1577,"RA_OF_ASC_NODE":13.2657,"ARG_OF_PERICENTER":85.9781,"MEAN_ANOMALY":274.1387,"EPHEMERIS_TYPE":0,"CLASSIFICATION_TYPE":"U","NORAD_CAT_ID":62229,"ELEMENT_SET_NO":999,"REV_AT_EPOCH":5327,"BSTAR":0.0018990791,"MEAN_MOTION_DOT":0.0023619,"MEAN_MOTION_DDOT":0},{"OBJECT_NAME":"STARLINK-11481 [DTC]","OBJECT_ID":"2024-231N","EPOCH":"2025-11-01T13:37:03.195840","MEAN_MOTION":15.69737797,"ECCENTRICITY":0.00014031,"INCLINATION":53.1564,"RA_OF_ASC_NODE":13.211,"ARG_OF_PERICENTER":81.1705,"MEAN_ANOMALY":278.9472,"EPHEMERIS_TYPE":0,"CLASSIFICATION_TYPE":"U","NORAD_CAT_ID":62230,"ELEMENT_SET_NO":999,"REV_AT_EPOCH":5328,"BSTAR":0.0012621012,"MEAN_MOTION_DOT":0.00155388,"MEAN_MOTION_DDOT":0},{"OBJECT_NAME":"STARLINK-32650","OBJECT_ID":"2024-231P","EPOCH":"2025-11-01T03:15:46.561248","MEAN_MOTION":15.30185421,"ECCENTRICITY":0.0001254,"INCLINATION":53.1584,"RA_OF_ASC_NODE":96.9316,"ARG_OF_PERICENTER":79.0316,"MEAN_ANOMALY":281.0825,"EPHEMERIS_TYPE":0,"CLASSIFICATION_TYPE":"U","NORAD_CAT_ID":62231,"ELEMENT_SET_NO":999,"REV_AT_EPOCH":5208,"BSTAR":0.00092770531,"MEAN_MOTION_DOT":0.00027205,"MEAN_MOTION_DDOT":0},{"OBJECT_NAME":"STARLINK-32636","OBJECT_ID":"2024-231Q","EPOCH":"2025-11-01T03:52:04.714752","MEAN_MOTION":15.30209478,"ECCENTRICITY":0.00012986,"INCLINATION":53.1584,"RA_OF_ASC_NODE":96.3816,"ARG_OF_PERICENTER":90.1862,"MEAN_ANOMALY":269.9287,"EPHEMERIS_TYPE":0,"CLASSIFICATION_TYPE":"U","NORAD_CAT_ID":62232,"ELEMENT_SET_NO":999,"REV_AT_EPOCH":5209,"BSTAR":0.00054858561,"MEAN_MOTION_DOT":0.00015928,"MEAN_MOTION_DDOT":0},{"OBJECT_NAME":"STARLINK-32643","OBJECT_ID":"2024-231R","EPOCH":"2025-11-01T15:23:05.126784","MEAN_MOTION":15.3021907,"ECCENTRICITY":0.00017485,"INCLINATION":53.1599,"RA_OF_ASC_NODE":81.6155,"ARG_OF_PERICENTER":95.6105,"MEAN_ANOMALY":264.5095,"EPHEMERIS_TYPE":0,"CLASSIFICATION_TYPE":"U","NORAD_CAT_ID":62233,"ELEMENT_SET_NO":999,"REV_AT_EPOCH":5233,"BSTAR":0.00091128152,"MEAN_MOTION_DOT":0.00026744,"MEAN_MOTION_DDOT":0},{"OBJECT_NAME":"STARLINK-32652","OBJECT_ID":"2024-231S","EPOCH":"2025-10-31T22:09:16.733376","MEAN_MOTION":15.30155753,"ECCENTRICITY":0.00012071,"INCLINATION":53.1568,"RA_OF_ASC_NODE":97.7375,"ARG_OF_PERICENTER":92.9413,"MEAN_ANOMALY":267.1726,"EPHEMERIS_TYPE":0,"CLASSIFICATION_TYPE":"U","NORAD_CAT_ID":62234,"ELEMENT_SET_NO":999,"REV_AT_EPOCH":5204,"BSTAR":0.0010821381,"MEAN_MOTION_DOT":0.00031784,"MEAN_MOTION_DDOT":0},{"OBJECT_NAME":"STARLINK-32631","OBJECT_ID":"2024-231T","EPOCH":"2025-11-01T16:00:01.999584","MEAN_MOTION":15.30181061,"ECCENTRICITY":0.00011214,"INCLINATION":53.1583,"RA_OF_ASC_NODE":81.3409,"ARG_OF_PERICENTER":83.1102,"MEAN_ANOMALY":139.8523,"EPHEMERIS_TYPE":0,"CLASSIFICATION_TYPE":"U","NORAD_CAT_ID":62235,"ELEMENT_SET_NO":999,"REV_AT_EPOCH":595,"BSTAR":0.00044532122,"MEAN_MOTION_DOT":0.00012845,"MEAN_MOTION_DDOT":0},{"OBJECT_NAME":"STARLINK-32641","OBJECT_ID":"2024-231U","EPOCH":"2025-11-01T15:27:38.566368","MEAN_MOTION":15.30229172,"ECCENTRICITY":0.00028195,"INCLINATION":53.1601,"RA_OF_ASC_NODE":81.6348,"ARG_OF_PERICENTER":85.6046,"MEAN_ANOMALY":274.5277,"EPHEMERIS_TYPE":0,"CLASSIFICATION_TYPE":"U","NORAD_CAT_ID":62236,"ELEMENT_SET_NO":999,"REV_AT_EPOCH":5233,"BSTAR":0.0011050951,"MEAN_MOTION_DOT":0.00032545,"MEAN_MOTION_DDOT":0},{"OBJECT_NAME":"STARLINK-32632","OBJECT_ID":"2024-231V","EPOCH":"2025-11-01T03:05:08.000448","MEAN_MOTION":15.30192393,"ECCENTRICITY":0.00011356,"INCLINATION":53.1582,"RA_OF_ASC_NODE":96.8832,"ARG_OF_PERICENTER":86.1428,"MEAN_ANOMALY":273.9703,"EPHEMERIS_TYPE":0,"CLASSIFICATION_TYPE":"U","NORAD_CAT_ID":62262,"ELEMENT_SET_NO":999,"REV_AT_EPOCH":5208,"BSTAR":0.00090883864,"MEAN_MOTION_DOT":0.00026648,"MEAN_MOTION_DDOT":0},{"OBJECT_NAME":"STARLINK-11496 [DTC]","OBJECT_ID":"2024-237A","EPOCH":"2025-11-01T03:46:39.155232","MEAN_MOTION":15.70945345,"ECCENTRICITY":0.00014404,"INCLINATION":42.9997,"RA_OF_ASC_NODE":111.7074,"ARG_OF_PERICENTER":332.3817,"MEAN_ANOMALY":27.6974,"EPHEMERIS_TYPE":0,"CLASSIFICATION_TYPE":"U","NORAD_CAT_ID":62267,"ELEMENT_SET_NO":999,"REV_AT_EPOCH":5283,"BSTAR":0.0028617398,"MEAN_MOTION_DOT":0.00386037,"MEAN_MOTION_DDOT":0},{"OBJECT_NAME":"STARLINK-11501 [DTC]","OBJECT_ID":"2024-237B","EPOCH":"2025-11-01T12:10:07.840416","MEAN_MOTION":15.70891289,"ECCENTRICITY":0.00018987,"INCLINATION":43.0006,"RA_OF_ASC_NODE":109.1512,"ARG_OF_PERICENTER":250.8422,"MEAN_ANOMALY":109.224,"EPHEMERIS_TYPE":0,"CLASSIFICATION_TYPE":"U","NORAD_CAT_ID":62268,"ELEMENT_SET_NO":999,"REV_AT_EPOCH":5284,"BSTAR":0.0017563898,"MEAN_MOTION_DOT":0.00231819,"MEAN_MOTION_DDOT":0},{"OBJECT_NAME":"STARLINK-11491 [DTC]","OBJECT_ID":"2024-237C","EPOCH":"2025-11-01T04:24:41.769792","MEAN_MOTION":15.70912183,"ECCENTRICITY":9.901e-5,"INCLINATION":42.9988,"RA_OF_ASC_NODE":111.0253,"ARG_OF_PERICENTER":13.3286,"MEAN_ANOMALY":346.7607,"EPHEMERIS_TYPE":0,"CLASSIFICATION_TYPE":"U","NORAD_CAT_ID":62269,"ELEMENT_SET_NO":999,"REV_AT_EPOCH":5284,"BSTAR":0.0020707527,"MEAN_MOTION_DOT":0.00275076,"MEAN_MOTION_DDOT":0},{"OBJECT_NAME":"STARLINK-11479 [DTC]","OBJECT_ID":"2024-237D","EPOCH":"2025-10-31T21:09:49.198752","MEAN_MOTION":15.70922021,"ECCENTRICITY":0.00026761,"INCLINATION":43.0023,"RA_OF_ASC_NODE":113.0695,"ARG_OF_PERICENTER":277.3561,"MEAN_ANOMALY":82.7002,"EPHEMERIS_TYPE":0,"CLASSIFICATION_TYPE":"U","NORAD_CAT_ID":62270,"ELEMENT_SET_NO":999,"REV_AT_EPOCH":5279,"BSTAR":0.0021265069,"MEAN_MOTION_DOT":0.00282885,"MEAN_MOTION_DDOT":0},{"OBJECT_NAME":"STARLINK-11489 [DTC]","OBJECT_ID":"2024-237E","EPOCH":"2025-11-01T04:09:35.027712","MEAN_MOTION":15.71018808,"ECCENTRICITY":0.00015757,"INCLINATION":42.9986,"RA_OF_ASC_NODE":111.8337,"ARG_OF_PERICENTER":289.6677,"MEAN_ANOMALY":70.4021,"EPHEMERIS_TYPE":0,"CLASSIFICATION_TYPE":"U","NORAD_CAT_ID":62271,"ELEMENT_SET_NO":999,"REV_AT_EPOCH":5283,"BSTAR":0.0026311837,"MEAN_MOTION_DOT":0.00354632,"MEAN_MOTION_DDOT":0},{"OBJECT_NAME":"STARLINK-11494 [DTC]","OBJECT_ID":"2024-237F","EPOCH":"2025-10-31T20:01:12.137664","MEAN_MOTION":15.70894105,"ECCENTRICITY":0.00013847,"INCLINATION":42.9989,"RA_OF_ASC_NODE":113.5786,"ARG_OF_PERICENTER":290.2145,"MEAN_ANOMALY":69.8573,"EPHEMERIS_TYPE":0,"CLASSIFICATION_TYPE":"U","NORAD_CAT_ID":62272,"ELEMENT_SET_NO":999,"REV_AT_EPOCH":5273,"BSTAR":0.0017685739,"MEAN_MOTION_DOT":0.00233504,"MEAN_MOTION_DDOT":0},{"OBJECT_NAME":"STARLINK-11333 [DTC]","OBJECT_ID":"2024-237G","EPOCH":"2025-11-01T03:54:18.028224","MEAN_MOTION":15.70927217,"ECCENTRICITY":6.678e-5,"INCLINATION":42.9989,"RA_OF_ASC_NODE":111.7469,"ARG_OF_PERICENTER":20.7178,"MEAN_ANOMALY":339.3717,"EPHEMERIS_TYPE":0,"CLASSIFICATION_TYPE":"U","NORAD_CAT_ID":62273,"ELEMENT_SET_NO":999,"REV_AT_EPOCH":5283,"BSTAR":0.0024933251,"MEAN_MOTION_DOT":0.00333907,"MEAN_MOTION_DDOT":0}]
