STARLINK-11485 [DTC]    
1 62229U 24231M   25305.46448234  .00236190  00000+0  18991-2 0  9993
2 62229  53.1577  13.2657 0001309  85.9781 274.1387 15.69714029 53279
STARLINK-11481 [DTC]    
1 62230U 24231N   25305.56739810  .00155388  00000+0  12621-2 0  9992
2 62230  53.1564  13.2110 0001403  81.1705 278.9472 15.69737797 53285
STARLINK-32650          
1 62231U 24231P   25305.13595557  .00027205  00000+0  92771-3 0  9995
2 62231  53.1584  96.9316 0001254  79.0316 281.0825 15.30185421 52085
STARLINK-32636          
1 62232U 24231Q   25305.16116568  .00015928  00000+0  54859-3 0  9994
2 62232  53.1584  96.3816 0001298  90.1862 269.9287 15.30209478 52090
STARLINK-32643          
1 62233U 24231R   25305.64103156  .00026744  00000+0  91128-3 0  9995
2 62233  53.1599  81.6155 0001748  95.6105 264.5095 15.30219070 52334
STARLINK-32652          
1 62234U 24231S   25304.92311034  .00031784  00000+0  10821-2 0  9992
2 62234  53.1568  97.7375 0001207  92.9413 267.1726 15.30155753 52040
STARLINK-32631          
1 62235U 24231T   25305.66668981  .00012845  00000+0  44532-3 0  9995
2 62235  53.1583  81.3409 0001121  83.1102 139.8523 15.30181061  5956
STARLINK-32641          
1 62236U 24231U   25305.64419637  .00032545  00000+0  11051-2 0  9994
2 62236  53.1601  81.6348 0002819  85.6046 274.5277 15.30229172 52335
STARLINK-32632          
1 62262U 24231V   25305.12856482  .00026648  00000+0  90884-3 0  9998
2 62262  53.1582  96.8832 0001135  86.1428 273.9703 15.30192393 52081
STARLINK-11496 [DTC]    
1 62267U 24237A   25305.15739763  .00386037  00000+0  28617-2 0  9999
2 62267  42.9997 111.7074 0001440 332.3817  27.6974 15.70945345 52838
STARLINK-11501 [DTC]    
1 62268U 24237B   25305.50703519  .00231819  00000+0  17564-2 0  9995
2 62268  43.0006 109.1512 0001898 250.8422 109.2240 15.70891289 52844
STARLINK-11491 [DTC]    
1 62269U 24237C   25305.18381678  .00275076  00000+0  20708-2 0  9995
2 62269  42.9988 111.0253 0000990  13.3286 346.7607 15.70912183 52840
STARLINK-11479 [DTC]    
1 62270U 24237D   25304.88181943  .00282885  00000+0  21265-2 0  9991
2 62270  43.0023 113.0695 0002676 277.3561  82.7002 15.70922021 52799
STARLINK-11489 [DTC]    
1 62271U 24237E   25305.17332208  .00354632  00000+0  26312-2 0  9995
2 62271  42.9986 111.8337 0001575 289.6677  70.4021 15.71018808 52836
STARLINK-11494 [DTC]    
1 62272U 24237F   25304.83416826  .00233504  00000+0  17686-2 0  9995
2 62272  42.9989 113.5786 0001384 290.2145  69.8573 15.70894105 52737
STARLINK-11333 [DTC]    
1 62273U 24237G   25305.16270866  .00333907  00000+0  24933-2 0  9996
2 62273  42.9989 111.7469 0000667  20.7178 339.3717 15.70927217 52838
